[{"OBJECT_NAME":"FENGYUN 1C DEB","OBJECT_ID":"1999-025AVF","EPOCH":"2026-03-28T09:32:30.899040","MEAN_MOTION":14.50303191,"ECCENTRICITY":0.00849636,"INCLINATION":99.1156,"RA_OF_ASC_NODE":243.4972,"ARG_OF_PERICENTER":249.7265,"MEAN_ANOMALY":138.7338,"EPHEMERIS_TYPE":0,"CLASSIFICATION_TYPE":"U","NORAD_CAT_ID":30821,"ELEMENT_SET_NO":999,"REV_AT_EPOCH":320,"BSTAR":0.00068649717,"MEAN_MOTION_DOT":2.747e-5,"MEAN_MOTION_DDOT":0},{"OBJECT_NAME":"FENGYUN 1C DEB","OBJECT_ID":"1999-025AVH","EPOCH":"2026-03-28T20:24:58.579200","MEAN_MOTION":14.0269672,"ECCENTRICITY":0.013427,"INCLINATION":98.7757,"RA_OF_ASC_NODE":229.9516,"ARG_OF_PERICENTER":147.6834,"MEAN_ANOMALY":7.779,"EPHEMERIS_TYPE":0,"CLASSIFICATION_TYPE":"U","NORAD_CAT_ID":30823,"ELEMENT_SET_NO":999,"REV_AT_EPOCH":97521,"BSTAR":0.0007264114,"MEAN_MOTION_DOT":1.173e-5,"MEAN_MOTION_DDOT":0},{"OBJECT_NAME":"FENGYUN 1C DEB","OBJECT_ID":"1999-025AVL","EPOCH":"2026-03-28T01:48:39.561696","MEAN_MOTION":14.83580816,"ECCENTRICITY":0.01423977,"INCLINATION":98.8642,"RA_OF_ASC_NODE":298.5674,"ARG_OF_PERICENTER":22.4766,"MEAN_ANOMALY":127.3669,"EPHEMERIS_TYPE":0,"CLASSIFICATION_TYPE":"U","NORAD_CAT_ID":30826,"ELEMENT_SET_NO":999,"REV_AT_EPOCH":1847,"BSTAR":0.00041308123,"MEAN_MOTION_DOT":3.998e-5,"MEAN_MOTION_DDOT":0},{"OBJECT_NAME":"FENGYUN 1C DEB","OBJECT_ID":"1999-025AVN","EPOCH":"2026-03-28T06:48:43.192800","MEAN_MOTION":14.79642801,"ECCENTRICITY":0.0200975,"INCLINATION":98.3758,"RA_OF_ASC_NODE":203.5645,"ARG_OF_PERICENTER":201.0373,"MEAN_ANOMALY":216.8043,"EPHEMERIS_TYPE":0,"CLASSIFICATION_TYPE":"U","NORAD_CAT_ID":30828,"ELEMENT_SET_NO":999,"REV_AT_EPOCH":201,"BSTAR":0.0018767,"MEAN_MOTION_DOT":0.00019847,"MEAN_MOTION_DDOT":0},{"OBJECT_NAME":"FENGYUN 1C DEB","OBJECT_ID":"1999-025AVP","EPOCH":"2026-03-28T05:18:36.267840","MEAN_MOTION":14.08823596,"ECCENTRICITY":0.00365201,"INCLINATION":98.7861,"RA_OF_ASC_NODE":82.1234,"ARG_OF_PERICENTER":36.7944,"MEAN_ANOMALY":323.5723,"EPHEMERIS_TYPE":0,"CLASSIFICATION_TYPE":"U","NORAD_CAT_ID":30829,"ELEMENT_SET_NO":999,"REV_AT_EPOCH":97918,"BSTAR":0.00037189201,"MEAN_MOTION_DOT":6.03e-6,"MEAN_MOTION_DDOT":0},{"OBJECT_NAME":"FENGYUN 1C DEB","OBJECT_ID":"1999-025AVQ","EPOCH":"2026-03-28T10:34:41.913696","MEAN_MOTION":14.12353282,"ECCENTRICITY":0.00297665,"INCLINATION":98.7411,"RA_OF_ASC_NODE":78.1502,"ARG_OF_PERICENTER":249.506,"MEAN_ANOMALY":265.2576,"EPHEMERIS_TYPE":0,"CLASSIFICATION_TYPE":"U","NORAD_CAT_ID":30830,"ELEMENT_SET_NO":999,"REV_AT_EPOCH":98091,"BSTAR":0.00026965103,"MEAN_MOTION_DOT":4.56e-6,"MEAN_MOTION_DDOT":0},{"OBJECT_NAME":"FENGYUN 1C DEB","OBJECT_ID":"1999-025AVR","EPOCH":"2026-03-27T17:46:56.174880","MEAN_MOTION":14.31393472,"ECCENTRICITY":0.00561542,"INCLINATION":99.3414,"RA_OF_ASC_NODE":252.268,"ARG_OF_PERICENTER":91.3273,"MEAN_ANOMALY":269.4342,"EPHEMERIS_TYPE":0,"CLASSIFICATION_TYPE":"U","NORAD_CAT_ID":30831,"ELEMENT_SET_NO":999,"REV_AT_EPOCH":66752,"BSTAR":0.00033728231,"MEAN_MOTION_DOT":8.6e-6,"MEAN_MOTION_DDOT":0},{"OBJECT_NAME":"FENGYUN 1C DEB","OBJECT_ID":"1999-025AVT","EPOCH":"2026-03-28T04:39:12.016512","MEAN_MOTION":14.27059935,"ECCENTRICITY":0.00321431,"INCLINATION":99.8573,"RA_OF_ASC_NODE":251.4343,"ARG_OF_PERICENTER":243.242,"MEAN_ANOMALY":116.5466,"EPHEMERIS_TYPE":0,"CLASSIFICATION_TYPE":"U","NORAD_CAT_ID":30833,"ELEMENT_SET_NO":999,"REV_AT_EPOCH":65915,"BSTAR":0.00042773341,"MEAN_MOTION_DOT":9.93e-6,"MEAN_MOTION_DDOT":0},{"OBJECT_NAME":"FENGYUN 1C DEB","OBJECT_ID":"1999-025AVW","EPOCH":"2026-03-28T20:29:35.833344","MEAN_MOTION":14.12085022,"ECCENTRICITY":0.00249869,"INCLINATION":98.7308,"RA_OF_ASC_NODE":122.8204,"ARG_OF_PERICENTER":305.2807,"MEAN_ANOMALY":54.6027,"EPHEMERIS_TYPE":0,"CLASSIFICATION_TYPE":"U","NORAD_CAT_ID":30836,"ELEMENT_SET_NO":999,"REV_AT_EPOCH":63501,"BSTAR":0.00032427215,"MEAN_MOTION_DOT":5.53e-6,"MEAN_MOTION_DDOT":0},{"OBJECT_NAME":"FENGYUN 1C DEB","OBJECT_ID":"1999-025AVX","EPOCH":"2026-03-28T22:41:04.516224","MEAN_MOTION":14.14679219,"ECCENTRICITY":0.00319369,"INCLINATION":98.6914,"RA_OF_ASC_NODE":76.2821,"ARG_OF_PERICENTER":189.3429,"MEAN_ANOMALY":226.3117,"EPHEMERIS_TYPE":0,"CLASSIFICATION_TYPE":"U","NORAD_CAT_ID":30837,"ELEMENT_SET_NO":999,"REV_AT_EPOCH":98320,"BSTAR":0.00031031438,"MEAN_MOTION_DOT":5.57e-6,"MEAN_MOTION_DDOT":0}]
