FENGYUN 1C DEB          
1 30821U 99025AVF 26087.39757985  .00002747  00000+0  68650-3 0  9992
2 30821  99.1156 243.4972 0084963 249.7265 138.7338 14.50303191  3208
FENGYUN 1C DEB          
1 30823U 99025AVH 26087.85067800  .00001173  00000+0  72641-3 0  9992
2 30823  98.7757 229.9516 0134270 147.6834   7.7790 14.02696720975216
FENGYUN 1C DEB          
1 30826U 99025AVL 26087.07545789  .00003998  00000+0  41308-3 0  9999
2 30826  98.8642 298.5674 0142397  22.4766 127.3669 14.83580816 18470
FENGYUN 1C DEB          
1 30828U 99025AVN 26087.28383325  .00019847  00000+0  18767-2 0  9992
2 30828  98.3758 203.5645 0200975 201.0373 216.8043 14.79642801  2016
FENGYUN 1C DEB          
1 30829U 99025AVP 26087.22125310  .00000603  00000+0  37189-3 0  9995
2 30829  98.7861  82.1234 0036520  36.7944 323.5723 14.08823596979187
FENGYUN 1C DEB          
1 30830U 99025AVQ 26087.44076289  .00000456  00000+0  26965-3 0  9997
2 30830  98.7411  78.1502 0029766 249.5060 265.2576 14.12353282980916
FENGYUN 1C DEB          
1 30831U 99025AVR 26086.74092795  .00000860  00000+0  33728-3 0  9994
2 30831  99.3414 252.2680 0056154  91.3273 269.4342 14.31393472667521
FENGYUN 1C DEB          
1 30833U 99025AVT 26087.19388908  .00000993  00000+0  42773-3 0  9997
2 30833  99.8573 251.4343 0032143 243.2420 116.5466 14.27059935659152
FENGYUN 1C DEB          
1 30836U 99025AVW 26087.85388696  .00000553  00000+0  32427-3 0  9994
2 30836  98.7308 122.8204 0024986 305.2807  54.6027 14.12085022635014
FENGYUN 1C DEB          
1 30837U 99025AVX 26087.94519115  .00000557  00000+0  31031-3 0  9991
2 30837  98.6914  76.2821 0031937 189.3429 226.3117 14.14679219983203
